{"type": "FeatureCollection", "features": [ {"type": "Feature", "properties": {"norad_id": 33492, "name": "GOSAT (IBUKI)", "group": "resource", "lat": 74.34604384783786, "lon": -57.4946648269833, "alt_km": 661.1639341729851, "timestamp": "2025-12-09T09:46:47.303706+00:00", "meta": {"OBJECT_NAME": "GOSAT (IBUKI)", "OBJECT_ID": "2009-002A", "EPOCH": "2025-12-09T04:24:04.320576", "MEAN_MOTION": 14.67543478, "ECCENTRICITY": 9.66e-05, "INCLINATION": 98.0769, "RA_OF_ASC_NODE": 91.8362, "ARG_OF_PERICENTER": 89.0788, "MEAN_ANOMALY": 271.0527, "EPHEMERIS_TYPE": 0, "CLASSIFICATION_TYPE": "U", "NORAD_CAT_ID": 33492, "ELEMENT_SET_NO": 999, "REV_AT_EPOCH": 90359, "BSTAR": 0.00025702, "MEAN_MOTION_DOT": 1.41e-05, "MEAN_MOTION_DDOT": 0}, "tle": {"line1": "1 33492U 09002A   25343.18338334  .00001410  00000+0  25702-3 0  9996", "line2": "2 33492  98.0769  91.8362 0000966  89.0788 271.0527 14.67543478903591"}}, "geometry": {"type": "Point", "coordinates": [-57.4946648269833, 74.34604384783786]}}, {"type": "Feature", "properties": {"norad_id": 35681, "name": "DEIMOS-1", "group": "resource", "lat": 81.82906431304383, "lon": 34.91217571291205, "alt_km": 635.9878632467316, "timestamp": "2025-12-09T09:46:47.303717+00:00", "meta": {"OBJECT_NAME": "DEIMOS-1", "OBJECT_ID": "2009-041A", "EPOCH": "2025-12-08T23:35:32.349120", "MEAN_MOTION": 14.74944279, "ECCENTRICITY": 0.00027139, "INCLINATION": 97.7145, "RA_OF_ASC_NODE": 143.7609, "ARG_OF_PERICENTER": 85.3579, "MEAN_ANOMALY": 274.7941, "EPHEMERIS_TYPE": 0, "CLASSIFICATION_TYPE": "U", "NORAD_CAT_ID": 35681, "ELEMENT_SET_NO": 999, "REV_AT_EPOCH": 87884, "BSTAR": 0.00018870686, "MEAN_MOTION_DOT": 1.22e-05, "MEAN_MOTION_DDOT": 0}, "tle": {"line1": "1 35681U 09041A   25342.98301330  .00001220  00000+0  18871-3 0  9992", "line2": "2 35681  97.7145 143.7609 0002713  85.3579 274.7941 14.74944279878848"}}, "geometry": {"type": "Point", "coordinates": [34.91217571291205, 81.82906431304383]}}, {"type": "Feature", "properties": {"norad_id": 35682, "name": "DUBAISAT-1", "group": "resource", "lat": 31.343049982005596, "lon": 109.23597994818384, "alt_km": 641.8775498304431, "timestamp": "2025-12-09T09:46:47.303728+00:00", "meta": {"OBJECT_NAME": "DUBAISAT-1", "OBJECT_ID": "2009-041B", "EPOCH": "2025-12-08T22:14:12.682752", "MEAN_MOTION": 14.74586479, "ECCENTRICITY": 0.00097882, "INCLINATION": 97.979, "RA_OF_ASC_NODE": 113.6627, "ARG_OF_PERICENTER": 327.7972, "MEAN_ANOMALY": 32.2638, "EPHEMERIS_TYPE": 0, "CLASSIFICATION_TYPE": "U", "NORAD_CAT_ID": 35682, "ELEMENT_SET_NO": 999, "REV_AT_EPOCH": 87705, "BSTAR": 0.00030199695, "MEAN_MOTION_DOT": 1.963e-05, "MEAN_MOTION_DDOT": 0}, "tle": {"line1": "1 35682U 09041B   25342.92653568  .00001963  00000+0  30200-3 0  9994", "line2": "2 35682  97.9790 113.6627 0009788 327.7972  32.2638 14.74586479877058"}}, "geometry": {"type": "Point", "coordinates": [109.23597994818384, 31.343049982005596]}}, {"type": "Feature", "properties": {"norad_id": 35931, "name": "OCEANSAT-2", "group": "resource", "lat": 26.832619095143563, "lon": -19.848375409696377, "alt_km": 883.3452591877967, "timestamp": "2025-12-09T09:46:47.303739+00:00", "meta": {"OBJECT_NAME": "OCEANSAT-2", "OBJECT_ID": "2009-051A", "EPOCH": "2025-12-09T04:30:13.608864", "MEAN_MOTION": 13.99625369, "ECCENTRICITY": 0.0016356, "INCLINATION": 98.2225, "RA_OF_ASC_NODE": 344.1486, "ARG_OF_PERICENTER": 54.3063, "MEAN_ANOMALY": 305.9624, "EPHEMERIS_TYPE": 0, "CLASSIFICATION_TYPE": "U", "NORAD_CAT_ID": 35931, "ELEMENT_SET_NO": 999, "REV_AT_EPOCH": 85275, "BSTAR": -8.4705e-05, "MEAN_MOTION_DOT": -1.61e-06, "MEAN_MOTION_DDOT": 0}, "tle": {"line1": "1 35931U 09051A   25343.18765751 -.00000161  00000+0 -84705-4 0  9990", "line2": "2 35931  98.2225 344.1486 0016356  54.3063 305.9624 13.99625369852752"}}, "geometry": {"type": "Point", "coordinates": [-19.848375409696377, 26.832619095143563]}}, {"type": "Feature", "properties": {"norad_id": 35946, "name": "WORLDVIEW-2 (WV-2)", "group": "resource", "lat": 51.8213963219217, "lon": 43.60555613630795, "alt_km": 757.8714526881649, "timestamp": "2025-12-09T09:46:47.303750+00:00", "meta": {"OBJECT_NAME": "WORLDVIEW-2 (WV-2)", "OBJECT_ID": "2009-055A", "EPOCH": "2025-12-08T21:50:36.686112", "MEAN_MOTION": 14.37649921, "ECCENTRICITY": 0.00053787, "INCLINATION": 98.4764, "RA_OF_ASC_NODE": 54.0477, "ARG_OF_PERICENTER": 76.1323, "MEAN_ANOMALY": 284.0462, "EPHEMERIS_TYPE": 0, "CLASSIFICATION_TYPE": "U", "NORAD_CAT_ID": 35946, "ELEMENT_SET_NO": 999, "REV_AT_EPOCH": 84830, "BSTAR": 0.00011462194, "MEAN_MOTION_DOT": 3.01e-06, "MEAN_MOTION_DDOT": 0}, "tle": {"line1": "1 35946U 09055A   25342.91014683  .00000301  00000+0  11462-3 0  9994", "line2": "2 35946  98.4764  54.0477 0005378  76.1323 284.0462 14.37649921848304"}}, "geometry": {"type": "Point", "coordinates": [43.60555613630795, 51.8213963219217]}}, {"type": "Feature", "properties": {"norad_id": 36036, "name": "SMOS", "group": "resource", "lat": 62.14530648412619, "lon": 152.19094574138344, "alt_km": 752.5527779597642, "timestamp": "2025-12-09T09:46:47.303761+00:00", "meta": {"OBJECT_NAME": "SMOS", "OBJECT_ID": "2009-059A", "EPOCH": "2025-12-09T02:48:53.559648", "MEAN_MOTION": 14.39736041, "ECCENTRICITY": 0.000111, "INCLINATION": 98.4383, "RA_OF_ASC_NODE": 168.2193, "ARG_OF_PERICENTER": 84.3146, "MEAN_ANOMALY": 275.8169, "EPHEMERIS_TYPE": 0, "CLASSIFICATION_TYPE": "U", "NORAD_CAT_ID": 36036, "ELEMENT_SET_NO": 999, "REV_AT_EPOCH": 84610, "BSTAR": 0.00020332, "MEAN_MOTION_DOT": 5.93e-06, "MEAN_MOTION_DDOT": 0}, "tle": {"line1": "1 36036U 09059A   25343.11728657  .00000593  00000+0  20332-3 0  9994", "line2": "2 36036  98.4383 168.2193 0001110  84.3146 275.8169 14.39736041846109"}}, "geometry": {"type": "Point", "coordinates": [152.19094574138344, 62.14530648412619]}}, {"type": "Feature", "properties": {"norad_id": 36110, "name": "YAOGAN-7", "group": "resource", "lat": 26.410128329978043, "lon": 49.19650003677272, "alt_km": 648.1165620969832, "timestamp": "2025-12-09T09:46:47.303771+00:00", "meta": {"OBJECT_NAME": "YAOGAN-7", "OBJECT_ID": "2009-069A", "EPOCH": "2025-12-08T15:12:38.687040", "MEAN_MOTION": 14.77723918, "ECCENTRICITY": 0.0023506, "INCLINATION": 98.0303, "RA_OF_ASC_NODE": 224.4054, "ARG_OF_PERICENTER": 295.2737, "MEAN_ANOMALY": 64.6037, "EPHEMERIS_TYPE": 0, "CLASSIFICATION_TYPE": "U", "NORAD_CAT_ID": 36110, "ELEMENT_SET_NO": 999, "REV_AT_EPOCH": 86148, "BSTAR": 0.00019724, "MEAN_MOTION_DOT": 1.367e-05, "MEAN_MOTION_DDOT": 0}, "tle": {"line1": "1 36110U 09069A   25342.63378110  .00001367  00000+0  19724-3 0  9992", "line2": "2 36110  98.0303 224.4054 0023506 295.2737  64.6037 14.77723918861480"}}, "geometry": {"type": "Point", "coordinates": [49.19650003677272, 26.410128329978043]}}, {"type": "Feature", "properties": {"norad_id": 36605, "name": "TANDEM-X", "group": "resource", "lat": -79.86245413403782, "lon": 121.83569283714368, "alt_km": 517.1502448192177, "timestamp": "2025-12-09T09:46:47.303782+00:00", "meta": {"OBJECT_NAME": "TANDEM-X", "OBJECT_ID": "2010-030A", "EPOCH": "2025-12-08T13:39:18.929376", "MEAN_MOTION": 15.19159019, "ECCENTRICITY": 0.0002067, "INCLINATION": 97.4453, "RA_OF_ASC_NODE": 348.0112, "ARG_OF_PERICENTER": 89.3333, "MEAN_ANOMALY": 270.8138, "EPHEMERIS_TYPE": 0, "CLASSIFICATION_TYPE": "U", "NORAD_CAT_ID": 36605, "ELEMENT_SET_NO": 999, "REV_AT_EPOCH": 85770, "BSTAR": 0.00014235, "MEAN_MOTION_DOT": 2.924e-05, "MEAN_MOTION_DDOT": 0}, "tle": {"line1": "1 36605U 10030A   25342.56896909  .00002924  00000+0  14235-3 0  9996", "line2": "2 36605  97.4453 348.0112 0002067  89.3333 270.8138 15.19159019857704"}}, "geometry": {"type": "Point", "coordinates": [121.83569283714368, -79.86245413403782]}}, {"type": "Feature", "properties": {"norad_id": 36795, "name": "CARTOSAT-2B", "group": "resource", "lat": 67.13078390355678, "lon": 13.618864708984141, "alt_km": 618.0323437539628, "timestamp": "2025-12-09T09:46:47.303793+00:00", "meta": {"OBJECT_NAME": "CARTOSAT-2B", "OBJECT_ID": "2010-035A", "EPOCH": "2025-12-09T04:36:00.332928", "MEAN_MOTION": 14.78782201, "ECCENTRICITY": 0.0012951, "INCLINATION": 97.7853, "RA_OF_ASC_NODE": 32.3374, "ARG_OF_PERICENTER": 87.8656, "MEAN_ANOMALY": 272.4039, "EPHEMERIS_TYPE": 0, "CLASSIFICATION_TYPE": "U", "NORAD_CAT_ID": 36795, "ELEMENT_SET_NO": 999, "REV_AT_EPOCH": 83177, "BSTAR": 0.00017487, "MEAN_MOTION_DOT": 1.237e-05, "MEAN_MOTION_DDOT": 0}, "tle": {"line1": "1 36795U 10035A   25343.19167052  .00001237  00000+0  17487-3 0  9999", "line2": "2 36795  97.7853  32.3374 0012951  87.8656 272.4039 14.78782201831774"}}, "geometry": {"type": "Point", "coordinates": [13.618864708984141, 67.13078390355678]}}, {"type": "Feature", "properties": {"norad_id": 36834, "name": "YAOGAN-10", "group": "resource", "lat": 76.2330346379667, "lon": -31.34126746448524, "alt_km": 606.7043831034653, "timestamp": "2025-12-09T09:46:47.303804+00:00", "meta": {"OBJECT_NAME": "YAOGAN-10", "OBJECT_ID": "2010-038A", "EPOCH": "2025-12-08T23:58:38.643168", "MEAN_MOTION": 14.84583858, "ECCENTRICITY": 0.00013969, "INCLINATION": 97.9141, "RA_OF_ASC_NODE": 2.847, "ARG_OF_PERICENTER": 82.2182, "MEAN_ANOMALY": 334.9652, "EPHEMERIS_TYPE": 0, "CLASSIFICATION_TYPE": "U", "NORAD_CAT_ID": 36834, "ELEMENT_SET_NO": 999, "REV_AT_EPOCH": 82898, "BSTAR": 0.00030748422, "MEAN_MOTION_DOT": 2.542e-05, "MEAN_MOTION_DDOT": 0}, "tle": {"line1": "1 36834U 10038A   25342.99905837  .00002542  00000+0  30748-3 0  9999", "line2": "2 36834  97.9141   2.8470 0001396  82.2182 334.9652 14.84583858828981"}}, "geometry": {"type": "Point", "coordinates": [-31.34126746448524, 76.2330346379667]}}]}